ONEWEB-0620             
1 55161U 23004X   24194.46124145 -.00000146  00000+0 -44791-3 0  9994
2 55161  87.8972 161.3623 0001701  95.4218 264.7104 13.11416437 73466
ONEWEB-0621             
1 55162U 23004Y   24194.41206676 -.00000249  00000+0 -73723-3 0  9991
2 55162  87.8972 161.3402 0002351  87.5297 272.6100 13.11419352 73433
ONEWEB-0622             
1 55163U 23004Z   24194.41715716  .00000054  00000+0  11587-3 0  9994
2 55163  87.8973 161.3556 0002021 110.2023 249.9323 13.11420537 73420
ONEWEB-0623             
1 55164U 23004AA  24194.40671458  .00000112  00000+0  25634-3 0  9991
2 55164  87.9186 146.2143 0002330 104.5548 255.5842 13.17652847 74778
ONEWEB-0624             
1 55165U 23004AB  24194.53466702 -.00000175  00000+0 -52251-3 0  9996
2 55165  87.8959 130.9701 0002107  85.3722 274.7647 13.12442852 75627
ONEWEB-0625             
1 55166U 23004AC  24194.39542826  .00000080  00000+0  17253-3 0  9999
2 55166  87.9185 146.2148 0002361  78.6975 281.4421 13.17647497 74768
ONEWEB-0626             
1 55167U 23004AD  24194.38573490  .00000092  00000+0  20459-3 0  9995
2 55167  87.9184 146.2173 0001548  80.8199 279.3108 13.17648347 74768
ONEWEB-0627             
1 55168U 23004AE  24194.60223140  .00000018  00000+0  13023-4 0  9993
2 55168  87.9185 146.1757 0002037 101.7983 258.3377 13.17647881 74795
